<?xml version="1.0" encoding="UTF-8"?>
<gpx creator="Garmin Connect" version="1.1"
  xsi:schemaLocation="http://www.topografix.com/GPX/1/1 http://www.topografix.com/GPX/11.xsd"
  xmlns:ns3="http://www.garmin.com/xmlschemas/TrackPointExtension/v1"
  xmlns="http://www.topografix.com/GPX/1/1"
  xmlns:xsi="http://www.w3.org/2001/XMLSchema-instance" xmlns:ns2="http://www.garmin.com/xmlschemas/GpxExtensions/v3">
  <metadata>
    <link href="connect.garmin.com">
      <text>Garmin Connect</text>
    </link>
    <time>2025-01-20T07:11:46.000Z</time>
  </metadata>
  <trk>
    <name>樹梅礦場</name>
    <type>motocross_v2</type>
    <trkseg>
      <trkpt lat="25.0966621376574039459228515625" lon="121.85997731052339076995849609375">
        <ele>605</ele>
        <time>2025-01-20T07:11:46.000Z</time>
        <extensions>
          <ns3:TrackPointExtension>
            <ns3:atemp>21.0</ns3:atemp>
            <ns3:hr>106</ns3:hr>
          </ns3:TrackPointExtension>
        </extensions>
      </trkpt>
      <trkpt lat="25.09662844240665435791015625" lon="121.85995995998382568359375">
        <ele>605.20001220703125</ele>
        <time>2025-01-20T07:11:51.000Z</time>
        <extensions>
          <ns3:TrackPointExtension>
            <ns3:atemp>21.0</ns3:atemp>
            <ns3:hr>106</ns3:hr>
          </ns3:TrackPointExtension>
        </extensions>
      </trkpt>
      <trkpt lat="25.09650279767811298370361328125" lon="121.85992064885795116424560546875">
        <ele>604.5999755859375</ele>
        <time>2025-01-20T07:11:56.000Z</time>
        <extensions>
          <ns3:TrackPointExtension>
            <ns3:atemp>21.0</ns3:atemp>
            <ns3:hr>104</ns3:hr>
          </ns3:TrackPointExtension>
        </extensions>
      </trkpt>
      <trkpt lat="25.0965005345642566680908203125" lon="121.85990438796579837799072265625">
        <ele>604.20001220703125</ele>
        <time>2025-01-20T07:12:00.000Z</time>
        <extensions>
          <ns3:TrackPointExtension>
            <ns3:atemp>21.0</ns3:atemp>
            <ns3:hr>103</ns3:hr>
          </ns3:TrackPointExtension>
        </extensions>
      </trkpt>
      <trkpt lat="25.09649969637393951416015625" lon="121.859903298318386077880859375">
        <ele>603.79998779296875</ele>
        <time>2025-01-20T07:12:03.000Z</time>
        <extensions>
          <ns3:TrackPointExtension>
            <ns3:atemp>21.0</ns3:atemp>
            <ns3:hr>103</ns3:hr>
          </ns3:TrackPointExtension>
        </extensions>
      </trkpt>
      <trkpt lat="25.0964789092540740966796875" lon="121.859907321631908416748046875">
        <ele>603.5999755859375</ele>
        <time>2025-01-20T07:12:08.000Z</time>
        <extensions>
          <ns3:TrackPointExtension>
            <ns3:atemp>21.0</ns3:atemp>
            <ns3:hr>105</ns3:hr>
          </ns3:TrackPointExtension>
        </extensions>
      </trkpt>
      <trkpt lat="25.09649173356592655181884765625" lon="121.8598913960158824920654296875">
        <ele>603.79998779296875</ele>
        <time>2025-01-20T07:12:11.000Z</time>
        <extensions>
          <ns3:TrackPointExtension>
            <ns3:atemp>21.0</ns3:atemp>
            <ns3:hr>109</ns3:hr>
          </ns3:TrackPointExtension>
        </extensions>
      </trkpt>
      <trkpt lat="25.0964559428393840789794921875" lon="121.85987412929534912109375">
        <ele>603.5999755859375</ele>
        <time>2025-01-20T07:12:13.000Z</time>
        <extensions>
          <ns3:TrackPointExtension>
            <ns3:atemp>21.0</ns3:atemp>
            <ns3:hr>112</ns3:hr>
          </ns3:TrackPointExtension>
        </extensions>
      </trkpt>
      <trkpt lat="25.0962849520146846771240234375" lon="121.85987840406596660614013671875">
        <ele>603.5999755859375</ele>
        <time>2025-01-20T07:12:17.000Z</time>
        <extensions>
          <ns3:TrackPointExtension>
            <ns3:atemp>21.0</ns3:atemp>
            <ns3:hr>114</ns3:hr>
          </ns3:TrackPointExtension>
        </extensions>
      </trkpt>
      <trkpt lat="25.09614908136427402496337890625" lon="121.859893240034580230712890625">
        <ele>602.4000244140625</ele>
        <time>2025-01-20T07:12:19.000Z</time>
        <extensions>
          <ns3:TrackPointExtension>
            <ns3:atemp>21.0</ns3:atemp>
            <ns3:hr>115</ns3:hr>
          </ns3:TrackPointExtension>
        </extensions>
      </trkpt>
      <trkpt lat="25.09596652351319789886474609375" lon="121.85991763137280941009521484375">
        <ele>601</ele>
        <time>2025-01-20T07:12:22.000Z</time>
        <extensions>
          <ns3:TrackPointExtension>
            <ns3:atemp>21.0</ns3:atemp>
            <ns3:hr>117</ns3:hr>
          </ns3:TrackPointExtension>
        </extensions>
      </trkpt>
      <trkpt lat="25.0958346761763095855712890625" lon="121.8599004484713077545166015625">
        <ele>599.4000244140625</ele>
        <time>2025-01-20T07:12:24.000Z</time>
        <extensions>
          <ns3:TrackPointExtension>
            <ns3:atemp>21.0</ns3:atemp>
            <ns3:hr>117</ns3:hr>
          </ns3:TrackPointExtension>
        </extensions>
      </trkpt>
      <trkpt lat="25.0957582332193851470947265625" lon="121.859897933900356292724609375">
        <ele>597</ele>
        <time>2025-01-20T07:12:25.000Z</time>
        <extensions>
          <ns3:TrackPointExtension>
            <ns3:atemp>21.0</ns3:atemp>
            <ns3:hr>118</ns3:hr>
          </ns3:TrackPointExtension>
        </extensions>
      </trkpt>
      <trkpt lat="25.09560928680002689361572265625" lon="121.8598930723965167999267578125">
        <ele>595.79998779296875</ele>
        <time>2025-01-20T07:12:27.000Z</time>
        <extensions>
          <ns3:TrackPointExtension>
            <ns3:atemp>21.0</ns3:atemp>
            <ns3:hr>117</ns3:hr>
          </ns3:TrackPointExtension>
        </extensions>
      </trkpt>
      <trkpt lat="25.095462016761302947998046875" lon="121.8599041365087032318115234375">
        <ele>594.4000244140625</ele>
        <time>2025-01-20T07:12:29.000Z</time>
        <extensions>
          <ns3:TrackPointExtension>
            <ns3:atemp>21.0</ns3:atemp>
            <ns3:hr>117</ns3:hr>
          </ns3:TrackPointExtension>
        </extensions>
      </trkpt>
      <trkpt lat="25.0953180156648159027099609375" lon="121.85994721949100494384765625">
        <ele>593</ele>
        <time>2025-01-20T07:12:31.000Z</time>
        <extensions>
          <ns3:TrackPointExtension>
            <ns3:atemp>21.0</ns3:atemp>
            <ns3:hr>118</ns3:hr>
          </ns3:TrackPointExtension>
        </extensions>
      </trkpt>
      <trkpt lat="25.09519874118268489837646484375" lon="121.85994260944426059722900390625">
        <ele>592.20001220703125</ele>
        <time>2025-01-20T07:12:33.000Z</time>
        <extensions>
          <ns3:TrackPointExtension>
            <ns3:atemp>21.0</ns3:atemp>
            <ns3:hr>116</ns3:hr>
          </ns3:TrackPointExtension>
        </extensions>
      </trkpt>
      <trkpt lat="25.0951242260634899139404296875" lon="121.859931461513042449951171875">
        <ele>591.79998779296875</ele>
        <time>2025-01-20T07:12:34.000Z</time>
        <extensions>
          <ns3:TrackPointExtension>
            <ns3:atemp>21.0</ns3:atemp>
            <ns3:hr>116</ns3:hr>
          </ns3:TrackPointExtension>
        </extensions>
      </trkpt>
      <trkpt lat="25.0950653851032257080078125" lon="121.85991008765995502471923828125">
        <ele>591</ele>
        <time>2025-01-20T07:12:35.000Z</time>
        <extensions>
          <ns3:TrackPointExtension>
            <ns3:atemp>21.0</ns3:atemp>
            <ns3:hr>116</ns3:hr>
          </ns3:TrackPointExtension>
        </extensions>
      </trkpt>
      <trkpt lat="25.09499095380306243896484375" lon="121.8598880432546138763427734375">
        <ele>590.4000244140625</ele>
        <time>2025-01-20T07:12:36.000Z</time>
        <extensions>
          <ns3:TrackPointExtension>
            <ns3:atemp>21.0</ns3:atemp>
            <ns3:hr>116</ns3:hr>
          </ns3:TrackPointExtension>
        </extensions>
      </trkpt>
      <trkpt lat="25.0949304364621639251708984375" lon="121.85987236909568309783935546875">
        <ele>589</ele>
        <time>2025-01-20T07:12:37.000Z</time>
        <extensions>
          <ns3:TrackPointExtension>
            <ns3:atemp>21.0</ns3:atemp>
            <ns3:hr>117</ns3:hr>
          </ns3:TrackPointExtension>
        </extensions>
      </trkpt>
      <trkpt lat="25.09487603791058063507080078125" lon="121.8598722852766513824462890625">
        <ele>588.4000244140625</ele>
        <time>2025-01-20T07:12:38.000Z</time>
        <extensions>
          <ns3:TrackPointExtension>
            <ns3:atemp>21.0</ns3:atemp>
            <ns3:hr>123</ns3:hr>
          </ns3:TrackPointExtension>
        </extensions>
      </trkpt>
      <trkpt lat="25.0947959907352924346923828125" lon="121.85989248566329479217529296875">
        <ele>588</ele>
        <time>2025-01-20T07:12:39.000Z</time>
        <extensions>
          <ns3:TrackPointExtension>
            <ns3:atemp>21.0</ns3:atemp>
            <ns3:hr>125</ns3:hr>
          </ns3:TrackPointExtension>
        </extensions>
      </trkpt>
      <trkpt lat="25.0947125069797039031982421875" lon="121.85993238352239131927490234375">
        <ele>588</ele>
        <time>2025-01-20T07:12:40.000Z</time>
        <extensions>
          <ns3:TrackPointExtension>
            <ns3:atemp>21.0</ns3:atemp>
            <ns3:hr>124</ns3:hr>
          </ns3:TrackPointExtension>
        </extensions>
      </trkpt>
      <trkpt lat="25.094657354056835174560546875" lon="121.85996465384960174560546875">
        <ele>587.79998779296875</ele>
        <time>2025-01-20T07:12:41.000Z</time>
        <extensions>
          <ns3:TrackPointExtension>
            <ns3:atemp>21.0</ns3:atemp>
            <ns3:hr>119</ns3:hr>
          </ns3:TrackPointExtension>
        </extensions>
      </trkpt>
      <trkpt lat="25.09460345841944217681884765625" lon="121.85999424196779727935791015625">
        <ele>587.79998779296875</ele>
        <time>2025-01-20T07:12:42.000Z</time>
        <extensions>
          <ns3:TrackPointExtension>
            <ns3:atemp>21.0</ns3:atemp>
            <ns3:hr>113</ns3:hr>
          </ns3:TrackPointExtension>
        </extensions>
      </trkpt>
      <trkpt lat="25.09456255473196506500244140625" lon="121.8600198067724704742431640625">
        <ele>587.5999755859375</ele>
        <time>2025-01-20T07:12:43.000Z</time>
        <extensions>
          <ns3:TrackPointExtension>
            <ns3:atemp>21.0</ns3:atemp>
            <ns3:hr>110</ns3:hr>
          </ns3:TrackPointExtension>
        </extensions>
      </trkpt>
      <trkpt lat="25.094380415976047515869140625" lon="121.8601301126182079315185546875">
        <ele>586.79998779296875</ele>
        <time>2025-01-20T07:12:46.000Z</time>
        <extensions>
          <ns3:TrackPointExtension>
            <ns3:atemp>21.0</ns3:atemp>
            <ns3:hr>108</ns3:hr>
          </ns3:TrackPointExtension>
        </extensions>
      </trkpt>
      <trkpt lat="25.0943078286945819854736328125" lon="121.86015819199383258819580078125">
        <ele>586.20001220703125</ele>
        <time>2025-01-20T07:12:47.000Z</time>
        <extensions>
          <ns3:TrackPointExtension>
            <ns3:atemp>21.0</ns3:atemp>
            <ns3:hr>108</ns3:hr>
          </ns3:TrackPointExtension>
        </extensions>
      </trkpt>
      <trkpt lat="25.0941767357289791107177734375" lon="121.8601767159998416900634765625">
        <ele>585.4000244140625</ele>
        <time>2025-01-20T07:12:49.000Z</time>
        <extensions>
          <ns3:TrackPointExtension>
            <ns3:atemp>21.0</ns3:atemp>
            <ns3:hr>107</ns3:hr>
          </ns3:TrackPointExtension>
        </extensions>
      </trkpt>
      <trkpt lat="25.09411579929292201995849609375" lon="121.86019339598715305328369140625">
        <ele>584.5999755859375</ele>
        <time>2025-01-20T07:12:50.000Z</time>
        <extensions>
          <ns3:TrackPointExtension>
            <ns3:atemp>20.0</ns3:atemp>
            <ns3:hr>107</ns3:hr>
          </ns3:TrackPointExtension>
        </extensions>
      </trkpt>
      <trkpt lat="25.0940567068755626678466796875" lon="121.860212422907352447509765625">
        <ele>584</ele>
        <time>2025-01-20T07:12:51.000Z</time>
        <extensions>
          <ns3:TrackPointExtension>
            <ns3:atemp>20.0</ns3:atemp>
            <ns3:hr>107</ns3:hr>
          </ns3:TrackPointExtension>
        </extensions>
      </trkpt>
      <trkpt lat="25.09394891560077667236328125" lon="121.86026045121252536773681640625">
        <ele>583.4000244140625</ele>
        <time>2025-01-20T07:12:53.000Z</time>
        <extensions>
          <ns3:TrackPointExtension>
            <ns3:atemp>20.0</ns3:atemp>
            <ns3:hr>110</ns3:hr>
          </ns3:TrackPointExtension>
        </extensions>
      </trkpt>
      <trkpt lat="25.09389837272465229034423828125" lon="121.86030202545225620269775390625">
        <ele>583.20001220703125</ele>
        <time>2025-01-20T07:12:54.000Z</time>
        <extensions>
          <ns3:TrackPointExtension>
            <ns3:atemp>20.0</ns3:atemp>
            <ns3:hr>111</ns3:hr>
          </ns3:TrackPointExtension>
        </extensions>
      </trkpt>
      <trkpt lat="25.0938503444194793701171875" lon="121.86033253557980060577392578125">
        <ele>583</ele>
        <time>2025-01-20T07:12:55.000Z</time>
        <extensions>
          <ns3:TrackPointExtension>
            <ns3:atemp>20.0</ns3:atemp>
            <ns3:hr>111</ns3:hr>
          </ns3:TrackPointExtension>
        </extensions>
      </trkpt>
      <trkpt lat="25.09376057423651218414306640625" lon="121.86037369072437286376953125">
        <ele>582.20001220703125</ele>
        <time>2025-01-20T07:12:57.000Z</time>
        <extensions>
          <ns3:TrackPointExtension>
            <ns3:atemp>20.0</ns3:atemp>
            <ns3:hr>110</ns3:hr>
          </ns3:TrackPointExtension>
        </extensions>
      </trkpt>
      <trkpt lat="25.09370123036205768585205078125" lon="121.86037830077111721038818359375">
        <ele>582</ele>
        <time>2025-01-20T07:12:58.000Z</time>
        <extensions>
          <ns3:TrackPointExtension>
            <ns3:atemp>20.0</ns3:atemp>
            <ns3:hr>109</ns3:hr>
          </ns3:TrackPointExtension>
        </extensions>
      </trkpt>
      <trkpt lat="25.0935749150812625885009765625" lon="121.86038550920784473419189453125">
        <ele>580.20001220703125</ele>
        <time>2025-01-20T07:13:00.000Z</time>
        <extensions>
          <ns3:TrackPointExtension>
            <ns3:atemp>20.0</ns3:atemp>
            <ns3:hr>108</ns3:hr>
          </ns3:TrackPointExtension>
        </extensions>
      </trkpt>
      <trkpt lat="25.09345497004687786102294921875" lon="121.86041928827762603759765625">
        <ele>579</ele>
        <time>2025-01-20T07:13:02.000Z</time>
        <extensions>
          <ns3:TrackPointExtension>
            <ns3:atemp>20.0</ns3:atemp>
            <ns3:hr>108</ns3:hr>
          </ns3:TrackPointExtension>
        </extensions>
      </trkpt>
      <trkpt lat="25.09339780546724796295166015625" lon="121.8604338727891445159912109375">
        <ele>578</ele>
        <time>2025-01-20T07:13:03.000Z</time>
        <extensions>
          <ns3:TrackPointExtension>
            <ns3:atemp>20.0</ns3:atemp>
            <ns3:hr>108</ns3:hr>
          </ns3:TrackPointExtension>
        </extensions>
      </trkpt>
      <trkpt lat="25.09317912161350250244140625" lon="121.86044116504490375518798828125">
        <ele>576.79998779296875</ele>
        <time>2025-01-20T07:13:07.000Z</time>
        <extensions>
          <ns3:TrackPointExtension>
            <ns3:atemp>20.0</ns3:atemp>
            <ns3:hr>110</ns3:hr>
          </ns3:TrackPointExtension>
        </extensions>
      </trkpt>
      <trkpt lat="25.09307627566158771514892578125" lon="121.86042331159114837646484375">
        <ele>576.4000244140625</ele>
        <time>2025-01-20T07:13:09.000Z</time>
        <extensions>
          <ns3:TrackPointExtension>
            <ns3:atemp>20.0</ns3:atemp>
            <ns3:hr>107</ns3:hr>
          </ns3:TrackPointExtension>
        </extensions>
      </trkpt>
      <trkpt lat="25.0929771177470684051513671875" lon="121.86045507900416851043701171875">
        <ele>575</ele>
        <time>2025-01-20T07:13:11.000Z</time>
        <extensions>
          <ns3:TrackPointExtension>
            <ns3:atemp>20.0</ns3:atemp>
            <ns3:hr>106</ns3:hr>
          </ns3:TrackPointExtension>
        </extensions>
      </trkpt>
      <trkpt lat="25.09292858652770519256591796875" lon="121.860482655465602874755859375">
        <ele>573.79998779296875</ele>
        <time>2025-01-20T07:13:12.000Z</time>
        <extensions>
          <ns3:TrackPointExtension>
            <ns3:atemp>20.0</ns3:atemp>
            <ns3:hr>106</ns3:hr>
          </ns3:TrackPointExtension>
        </extensions>
      </trkpt>
      <trkpt lat="25.09281610138714313507080078125" lon="121.86053923331201076507568359375">
        <ele>572.5999755859375</ele>
        <time>2025-01-20T07:13:15.000Z</time>
        <extensions>
          <ns3:TrackPointExtension>
            <ns3:atemp>20.0</ns3:atemp>
            <ns3:hr>106</ns3:hr>
          </ns3:TrackPointExtension>
        </extensions>
      </trkpt>
      <trkpt lat="25.0927461124956607818603515625" lon="121.8605787120759487152099609375">
        <ele>572.20001220703125</ele>
        <time>2025-01-20T07:13:17.000Z</time>
        <extensions>
          <ns3:TrackPointExtension>
            <ns3:atemp>20.0</ns3:atemp>
            <ns3:hr>107</ns3:hr>
          </ns3:TrackPointExtension>
        </extensions>
      </trkpt>
      <trkpt lat="25.0926996767520904541015625" lon="121.860593296587467193603515625">
        <ele>572.20001220703125</ele>
        <time>2025-01-20T07:13:18.000Z</time>
        <extensions>
          <ns3:TrackPointExtension>
            <ns3:atemp>20.0</ns3:atemp>
            <ns3:hr>110</ns3:hr>
          </ns3:TrackPointExtension>
        </extensions>
      </trkpt>
      <trkpt lat="25.0926138460636138916015625" lon="121.8605921231210231781005859375">
        <ele>571.4000244140625</ele>
        <time>2025-01-20T07:13:20.000Z</time>
        <extensions>
          <ns3:TrackPointExtension>
            <ns3:atemp>20.0</ns3:atemp>
            <ns3:hr>115</ns3:hr>
          </ns3:TrackPointExtension>
        </extensions>
      </trkpt>
      <trkpt lat="25.09256514720618724822998046875" lon="121.86058818362653255462646484375">
        <ele>571</ele>
        <time>2025-01-20T07:13:21.000Z</time>
        <extensions>
          <ns3:TrackPointExtension>
            <ns3:atemp>20.0</ns3:atemp>
            <ns3:hr>118</ns3:hr>
          </ns3:TrackPointExtension>
        </extensions>
      </trkpt>
      <trkpt lat="25.092529356479644775390625" lon="121.8605824001133441925048828125">
        <ele>570</ele>
        <time>2025-01-20T07:13:22.000Z</time>
        <extensions>
          <ns3:TrackPointExtension>
            <ns3:atemp>20.0</ns3:atemp>
            <ns3:hr>119</ns3:hr>
          </ns3:TrackPointExtension>
        </extensions>
      </trkpt>
      <trkpt lat="25.09243338368833065032958984375" lon="121.86053931713104248046875">
        <ele>569</ele>
        <time>2025-01-20T07:13:25.000Z</time>
        <extensions>
          <ns3:TrackPointExtension>
            <ns3:atemp>20.0</ns3:atemp>
            <ns3:hr>122</ns3:hr>
          </ns3:TrackPointExtension>
        </extensions>
      </trkpt>
      <trkpt lat="25.0924031250178813934326171875" lon="121.8605163507163524627685546875">
        <ele>568.79998779296875</ele>
        <time>2025-01-20T07:13:26.000Z</time>
        <extensions>
          <ns3:TrackPointExtension>
            <ns3:atemp>20.0</ns3:atemp>
            <ns3:hr>122</ns3:hr>
          </ns3:TrackPointExtension>
        </extensions>
      </trkpt>
      <trkpt lat="25.09227932430803775787353515625" lon="121.86046597547829151153564453125">
        <ele>567.79998779296875</ele>
        <time>2025-01-20T07:13:30.000Z</time>
        <extensions>
          <ns3:TrackPointExtension>
            <ns3:atemp>20.0</ns3:atemp>
            <ns3:hr>123</ns3:hr>
          </ns3:TrackPointExtension>
        </extensions>
      </trkpt>
      <trkpt lat="25.0922571122646331787109375" lon="121.86045440845191478729248046875">
        <ele>567.5999755859375</ele>
        <time>2025-01-20T07:13:31.000Z</time>
        <extensions>
          <ns3:TrackPointExtension>
            <ns3:atemp>20.0</ns3:atemp>
            <ns3:hr>123</ns3:hr>
          </ns3:TrackPointExtension>
        </extensions>
      </trkpt>
      <trkpt lat="25.092217884957790374755859375" lon="121.860402189195156097412109375">
        <ele>567</ele>
        <time>2025-01-20T07:13:36.000Z</time>
        <extensions>
          <ns3:TrackPointExtension>
            <ns3:atemp>20.0</ns3:atemp>
            <ns3:hr>123</ns3:hr>
          </ns3:TrackPointExtension>
        </extensions>
      </trkpt>
      <trkpt lat="25.09219785220921039581298828125" lon="121.86038282699882984161376953125">
        <ele>566.79998779296875</ele>
        <time>2025-01-20T07:13:39.000Z</time>
        <extensions>
          <ns3:TrackPointExtension>
            <ns3:atemp>20.0</ns3:atemp>
            <ns3:hr>123</ns3:hr>
          </ns3:TrackPointExtension>
        </extensions>
      </trkpt>
      <trkpt lat="25.0921831838786602020263671875" lon="121.86037310399115085601806640625">
        <ele>566.5999755859375</ele>
        <time>2025-01-20T07:13:41.000Z</time>
        <extensions>
          <ns3:TrackPointExtension>
            <ns3:atemp>20.0</ns3:atemp>
            <ns3:hr>124</ns3:hr>
          </ns3:TrackPointExtension>
        </extensions>
      </trkpt>
      <trkpt lat="25.092172957956790924072265625" lon="121.86035734601318836212158203125">
        <ele>566.5999755859375</ele>
        <time>2025-01-20T07:13:42.000Z</time>
        <extensions>
          <ns3:TrackPointExtension>
            <ns3:atemp>20.0</ns3:atemp>
            <ns3:hr>124</ns3:hr>
          </ns3:TrackPointExtension>
        </extensions>
      </trkpt>
      <trkpt lat="25.092089138925075531005859375" lon="121.860252320766448974609375">
        <ele>565.5999755859375</ele>
        <time>2025-01-20T07:13:48.000Z</time>
        <extensions>
          <ns3:TrackPointExtension>
            <ns3:atemp>20.0</ns3:atemp>
            <ns3:hr>125</ns3:hr>
          </ns3:TrackPointExtension>
        </extensions>
      </trkpt>
      <trkpt lat="25.0920758955180644989013671875" lon="121.86022910289466381072998046875">
        <ele>565.4000244140625</ele>
        <time>2025-01-20T07:13:49.000Z</time>
        <extensions>
          <ns3:TrackPointExtension>
            <ns3:atemp>20.0</ns3:atemp>
            <ns3:hr>125</ns3:hr>
          </ns3:TrackPointExtension>
        </extensions>
      </trkpt>
      <trkpt lat="25.09204161353409290313720703125" lon="121.86018702574074268341064453125">
        <ele>565</ele>
        <time>2025-01-20T07:13:51.000Z</time>
        <extensions>
          <ns3:TrackPointExtension>
            <ns3:atemp>20.0</ns3:atemp>
            <ns3:hr>126</ns3:hr>
          </ns3:TrackPointExtension>
        </extensions>
      </trkpt>
      <trkpt lat="25.09201847948133945465087890625" lon="121.8601706810295581817626953125">
        <ele>565</ele>
        <time>2025-01-20T07:13:52.000Z</time>
        <extensions>
          <ns3:TrackPointExtension>
            <ns3:atemp>20.0</ns3:atemp>
            <ns3:hr>135</ns3:hr>
          </ns3:TrackPointExtension>
        </extensions>
      </trkpt>
      <trkpt lat="25.09201194159686565399169921875" lon="121.86016154475510120391845703125">
        <ele>564.79998779296875</ele>
        <time>2025-01-20T07:13:53.000Z</time>
        <extensions>
          <ns3:TrackPointExtension>
            <ns3:atemp>20.0</ns3:atemp>
            <ns3:hr>139</ns3:hr>
          </ns3:TrackPointExtension>
        </extensions>
      </trkpt>
      <trkpt lat="25.09200657717883586883544921875" lon="121.86015768907964229583740234375">
        <ele>564.79998779296875</ele>
        <time>2025-01-20T07:13:54.000Z</time>
        <extensions>
          <ns3:TrackPointExtension>
            <ns3:atemp>20.0</ns3:atemp>
            <ns3:hr>139</ns3:hr>
          </ns3:TrackPointExtension>
        </extensions>
      </trkpt>
      <trkpt lat="25.0919505022466182708740234375" lon="121.860148049890995025634765625">
        <ele>564.4000244140625</ele>
        <time>2025-01-20T07:13:57.000Z</time>
        <extensions>
          <ns3:TrackPointExtension>
            <ns3:atemp>20.0</ns3:atemp>
            <ns3:hr>139</ns3:hr>
          </ns3:TrackPointExtension>
        </extensions>
      </trkpt>
      <trkpt lat="25.09192845784127712249755859375" lon="121.860123910009860992431640625">
        <ele>564.20001220703125</ele>
        <time>2025-01-20T07:13:59.000Z</time>
        <extensions>
          <ns3:TrackPointExtension>
            <ns3:atemp>20.0</ns3:atemp>
            <ns3:hr>139</ns3:hr>
          </ns3:TrackPointExtension>
        </extensions>
      </trkpt>
      <trkpt lat="25.091919489204883575439453125" lon="121.8601120077073574066162109375">
        <ele>563</ele>
        <time>2025-01-20T07:14:02.000Z</time>
        <extensions>
          <ns3:TrackPointExtension>
            <ns3:atemp>20.0</ns3:atemp>
            <ns3:hr>136</ns3:hr>
          </ns3:TrackPointExtension>
        </extensions>
      </trkpt>
      <trkpt lat="25.0919220037758350372314453125" lon="121.8601083196699619293212890625">
        <ele>562.4000244140625</ele>
        <time>2025-01-20T07:14:05.000Z</time>
        <extensions>
          <ns3:TrackPointExtension>
            <ns3:atemp>20.0</ns3:atemp>
            <ns3:hr>132</ns3:hr>
          </ns3:TrackPointExtension>
        </extensions>
      </trkpt>
      <trkpt lat="25.0919220037758350372314453125" lon="121.8601083196699619293212890625">
        <ele>562.20001220703125</ele>
        <time>2025-01-20T07:14:07.000Z</time>
        <extensions>
          <ns3:TrackPointExtension>
            <ns3:atemp>20.0</ns3:atemp>
            <ns3:hr>128</ns3:hr>
          </ns3:TrackPointExtension>
        </extensions>
      </trkpt>
      <trkpt lat="25.09192191995680332183837890625" lon="121.8601083196699619293212890625">
        <ele>562.20001220703125</ele>
        <time>2025-01-20T07:14:10.000Z</time>
        <extensions>
          <ns3:TrackPointExtension>
            <ns3:atemp>20.0</ns3:atemp>
            <ns3:hr>124</ns3:hr>
          </ns3:TrackPointExtension>
        </extensions>
      </trkpt>
      <trkpt lat="25.09191068820655345916748046875" lon="121.86008091084659099578857421875">
        <ele>562.20001220703125</ele>
        <time>2025-01-20T07:14:11.000Z</time>
        <extensions>
          <ns3:TrackPointExtension>
            <ns3:atemp>20.0</ns3:atemp>
            <ns3:hr>123</ns3:hr>
          </ns3:TrackPointExtension>
        </extensions>
      </trkpt>
      <trkpt lat="25.0919042341411113739013671875" lon="121.86002005822956562042236328125">
        <ele>562.20001220703125</ele>
        <time>2025-01-20T07:14:15.000Z</time>
        <extensions>
          <ns3:TrackPointExtension>
            <ns3:atemp>20.0</ns3:atemp>
            <ns3:hr>121</ns3:hr>
          </ns3:TrackPointExtension>
        </extensions>
      </trkpt>
      <trkpt lat="25.0919028930366039276123046875" lon="121.86000295914709568023681640625">
        <ele>561.79998779296875</ele>
        <time>2025-01-20T07:14:16.000Z</time>
        <extensions>
          <ns3:TrackPointExtension>
            <ns3:atemp>20.0</ns3:atemp>
            <ns3:hr>120</ns3:hr>
          </ns3:TrackPointExtension>
        </extensions>
      </trkpt>
      <trkpt lat="25.09190280921757221221923828125" lon="121.859959624707698822021484375">
        <ele>561.5999755859375</ele>
        <time>2025-01-20T07:14:18.000Z</time>
        <extensions>
          <ns3:TrackPointExtension>
            <ns3:atemp>20.0</ns3:atemp>
            <ns3:hr>117</ns3:hr>
          </ns3:TrackPointExtension>
        </extensions>
      </trkpt>
      <trkpt lat="25.09189157746732234954833984375" lon="121.8599343113601207733154296875">
        <ele>561.5999755859375</ele>
        <time>2025-01-20T07:14:19.000Z</time>
        <extensions>
          <ns3:TrackPointExtension>
            <ns3:atemp>20.0</ns3:atemp>
            <ns3:hr>117</ns3:hr>
          </ns3:TrackPointExtension>
        </extensions>
      </trkpt>
      <trkpt lat="25.09186224080622196197509765625" lon="121.85990874655544757843017578125">
        <ele>561.5999755859375</ele>
        <time>2025-01-20T07:14:20.000Z</time>
        <extensions>
          <ns3:TrackPointExtension>
            <ns3:atemp>20.0</ns3:atemp>
            <ns3:hr>116</ns3:hr>
          </ns3:TrackPointExtension>
        </extensions>
      </trkpt>
      <trkpt lat="25.091850422322750091552734375" lon="121.8599130213260650634765625">
        <ele>561.4000244140625</ele>
        <time>2025-01-20T07:14:22.000Z</time>
        <extensions>
          <ns3:TrackPointExtension>
            <ns3:atemp>21.0</ns3:atemp>
            <ns3:hr>115</ns3:hr>
          </ns3:TrackPointExtension>
        </extensions>
      </trkpt>
      <trkpt lat="25.091828294098377227783203125" lon="121.85990690253674983978271484375">
        <ele>561.4000244140625</ele>
        <time>2025-01-20T07:14:23.000Z</time>
        <extensions>
          <ns3:TrackPointExtension>
            <ns3:atemp>21.0</ns3:atemp>
            <ns3:hr>114</ns3:hr>
          </ns3:TrackPointExtension>
        </extensions>
      </trkpt>
      <trkpt lat="25.0917791761457920074462890625" lon="121.85990220867097377777099609375">
        <ele>560.79998779296875</ele>
        <time>2025-01-20T07:14:26.000Z</time>
        <extensions>
          <ns3:TrackPointExtension>
            <ns3:atemp>21.0</ns3:atemp>
            <ns3:hr>114</ns3:hr>
          </ns3:TrackPointExtension>
        </extensions>
      </trkpt>
      <trkpt lat="25.09178697131574153900146484375" lon="121.85990589670836925506591796875">
        <ele>560.4000244140625</ele>
        <time>2025-01-20T07:14:27.000Z</time>
        <extensions>
          <ns3:TrackPointExtension>
            <ns3:atemp>21.0</ns3:atemp>
            <ns3:hr>113</ns3:hr>
          </ns3:TrackPointExtension>
        </extensions>
      </trkpt>
      <trkpt lat="25.0917191617190837860107421875" lon="121.859895251691341400146484375">
        <ele>559.79998779296875</ele>
        <time>2025-01-20T07:14:31.000Z</time>
        <extensions>
          <ns3:TrackPointExtension>
            <ns3:atemp>21.0</ns3:atemp>
            <ns3:hr>112</ns3:hr>
          </ns3:TrackPointExtension>
        </extensions>
      </trkpt>
      <trkpt lat="25.09169158525764942169189453125" lon="121.85988108627498149871826171875">
        <ele>559.4000244140625</ele>
        <time>2025-01-20T07:14:32.000Z</time>
        <extensions>
          <ns3:TrackPointExtension>
            <ns3:atemp>21.0</ns3:atemp>
            <ns3:hr>113</ns3:hr>
          </ns3:TrackPointExtension>
        </extensions>
      </trkpt>
      <trkpt lat="25.0915941037237644195556640625" lon="121.85985409654676914215087890625">
        <ele>558.4000244140625</ele>
        <time>2025-01-20T07:14:36.000Z</time>
        <extensions>
          <ns3:TrackPointExtension>
            <ns3:atemp>21.0</ns3:atemp>
            <ns3:hr>115</ns3:hr>
          </ns3:TrackPointExtension>
        </extensions>
      </trkpt>
      <trkpt lat="25.09147214703261852264404296875" lon="121.8598551861941814422607421875">
        <ele>557.4000244140625</ele>
        <time>2025-01-20T07:14:40.000Z</time>
        <extensions>
          <ns3:TrackPointExtension>
            <ns3:atemp>21.0</ns3:atemp>
            <ns3:hr>118</ns3:hr>
          </ns3:TrackPointExtension>
        </extensions>
      </trkpt>
      <trkpt lat="25.091386735439300537109375" lon="121.85986348427832126617431640625">
        <ele>557.20001220703125</ele>
        <time>2025-01-20T07:14:42.000Z</time>
        <extensions>
          <ns3:TrackPointExtension>
            <ns3:atemp>21.0</ns3:atemp>
            <ns3:hr>120</ns3:hr>
          </ns3:TrackPointExtension>
        </extensions>
      </trkpt>
      <trkpt lat="25.0913144834339618682861328125" lon="121.85984521172940731048583984375">
        <ele>556.5999755859375</ele>
        <time>2025-01-20T07:14:44.000Z</time>
        <extensions>
          <ns3:TrackPointExtension>
            <ns3:atemp>21.0</ns3:atemp>
            <ns3:hr>121</ns3:hr>
          </ns3:TrackPointExtension>
        </extensions>
      </trkpt>
      <trkpt lat="25.09120224975049495697021484375" lon="121.85985527001321315765380859375">
        <ele>556</ele>
        <time>2025-01-20T07:14:47.000Z</time>
        <extensions>
          <ns3:TrackPointExtension>
            <ns3:atemp>21.0</ns3:atemp>
            <ns3:hr>121</ns3:hr>
          </ns3:TrackPointExtension>
        </extensions>
      </trkpt>
      <trkpt lat="25.0911277346312999725341796875" lon="121.85987588949501514434814453125">
        <ele>554.4000244140625</ele>
        <time>2025-01-20T07:14:49.000Z</time>
        <extensions>
          <ns3:TrackPointExtension>
            <ns3:atemp>21.0</ns3:atemp>
            <ns3:hr>118</ns3:hr>
          </ns3:TrackPointExtension>
        </extensions>
      </trkpt>
      <trkpt lat="25.09108993224799633026123046875" lon="121.85988360084593296051025390625">
        <ele>554</ele>
        <time>2025-01-20T07:14:50.000Z</time>
        <extensions>
          <ns3:TrackPointExtension>
            <ns3:atemp>21.0</ns3:atemp>
            <ns3:hr>118</ns3:hr>
          </ns3:TrackPointExtension>
        </extensions>
      </trkpt>
      <trkpt lat="25.09104131720960140228271484375" lon="121.85990137048065662384033203125">
        <ele>553.5999755859375</ele>
        <time>2025-01-20T07:14:51.000Z</time>
        <extensions>
          <ns3:TrackPointExtension>
            <ns3:atemp>21.0</ns3:atemp>
            <ns3:hr>118</ns3:hr>
          </ns3:TrackPointExtension>
        </extensions>
      </trkpt>
      <trkpt lat="25.09099622257053852081298828125" lon="121.8599239178001880645751953125">
        <ele>553.20001220703125</ele>
        <time>2025-01-20T07:14:52.000Z</time>
        <extensions>
          <ns3:TrackPointExtension>
            <ns3:atemp>21.0</ns3:atemp>
            <ns3:hr>119</ns3:hr>
          </ns3:TrackPointExtension>
        </extensions>
      </trkpt>
      <trkpt lat="25.09096470661461353302001953125" lon="121.8599423579871654510498046875">
        <ele>553.20001220703125</ele>
        <time>2025-01-20T07:14:53.000Z</time>
        <extensions>
          <ns3:TrackPointExtension>
            <ns3:atemp>21.0</ns3:atemp>
            <ns3:hr>122</ns3:hr>
          </ns3:TrackPointExtension>
        </extensions>
      </trkpt>
      <trkpt lat="25.09092380292713642120361328125" lon="121.859955601394176483154296875">
        <ele>553</ele>
        <time>2025-01-20T07:14:54.000Z</time>
        <extensions>
          <ns3:TrackPointExtension>
            <ns3:atemp>21.0</ns3:atemp>
            <ns3:hr>129</ns3:hr>
          </ns3:TrackPointExtension>
        </extensions>
      </trkpt>
      <trkpt lat="25.090885162353515625" lon="121.85996959917247295379638671875">
        <ele>552.5999755859375</ele>
        <time>2025-01-20T07:14:55.000Z</time>
        <extensions>
          <ns3:TrackPointExtension>
            <ns3:atemp>21.0</ns3:atemp>
            <ns3:hr>131</ns3:hr>
          </ns3:TrackPointExtension>
        </extensions>
      </trkpt>
      <trkpt lat="25.09084166027605533599853515625" lon="121.85998485423624515533447265625">
        <ele>552.20001220703125</ele>
        <time>2025-01-20T07:14:56.000Z</time>
        <extensions>
          <ns3:TrackPointExtension>
            <ns3:atemp>21.0</ns3:atemp>
            <ns3:hr>130</ns3:hr>
          </ns3:TrackPointExtension>
        </extensions>
      </trkpt>
      <trkpt lat="25.09072716347873210906982421875" lon="121.86000513844192028045654296875">
        <ele>551.20001220703125</ele>
        <time>2025-01-20T07:14:59.000Z</time>
        <extensions>
          <ns3:TrackPointExtension>
            <ns3:atemp>21.0</ns3:atemp>
            <ns3:hr>128</ns3:hr>
          </ns3:TrackPointExtension>
        </extensions>
      </trkpt>
      <trkpt lat="25.09067921899259090423583984375" lon="121.8600120954215526580810546875">
        <ele>551</ele>
        <time>2025-01-20T07:15:00.000Z</time>
        <extensions>
          <ns3:TrackPointExtension>
            <ns3:atemp>21.0</ns3:atemp>
            <ns3:hr>128</ns3:hr>
          </ns3:TrackPointExtension>
        </extensions>
      </trkpt>
      <trkpt lat="25.09057260118424892425537109375" lon="121.86000698246061801910400390625">
        <ele>550</ele>
        <time>2025-01-20T07:15:03.000Z</time>
        <extensions>
          <ns3:TrackPointExtension>
            <ns3:atemp>21.0</ns3:atemp>
            <ns3:hr>128</ns3:hr>
          </ns3:TrackPointExtension>
        </extensions>
      </trkpt>
      <trkpt lat="25.090533792972564697265625" lon="121.85999960638582706451416015625">
        <ele>549.5999755859375</ele>
        <time>2025-01-20T07:15:04.000Z</time>
        <extensions>
          <ns3:TrackPointExtension>
            <ns3:atemp>21.0</ns3:atemp>
            <ns3:hr>128</ns3:hr>
          </ns3:TrackPointExtension>
        </extensions>
      </trkpt>
      <trkpt lat="25.0904414243996143341064453125" lon="121.859954260289669036865234375">
        <ele>548.4000244140625</ele>
        <time>2025-01-20T07:15:07.000Z</time>
        <extensions>
          <ns3:TrackPointExtension>
            <ns3:atemp>21.0</ns3:atemp>
            <ns3:hr>129</ns3:hr>
          </ns3:TrackPointExtension>
        </extensions>
      </trkpt>
      <trkpt lat="25.09037579409778118133544921875" lon="121.85995132662355899810791015625">
        <ele>547.20001220703125</ele>
        <time>2025-01-20T07:15:09.000Z</time>
        <extensions>
          <ns3:TrackPointExtension>
            <ns3:atemp>21.0</ns3:atemp>
            <ns3:hr>129</ns3:hr>
          </ns3:TrackPointExtension>
        </extensions>
      </trkpt>
      <trkpt lat="25.09033120237290859222412109375" lon="121.8599789030849933624267578125">
        <ele>546.5999755859375</ele>
        <time>2025-01-20T07:15:11.000Z</time>
        <extensions>
          <ns3:TrackPointExtension>
            <ns3:atemp>21.0</ns3:atemp>
            <ns3:hr>126</ns3:hr>
          </ns3:TrackPointExtension>
        </extensions>
      </trkpt>
      <trkpt lat="25.09032634086906909942626953125" lon="121.8599990196526050567626953125">
        <ele>546.20001220703125</ele>
        <time>2025-01-20T07:15:12.000Z</time>
        <extensions>
          <ns3:TrackPointExtension>
            <ns3:atemp>21.0</ns3:atemp>
            <ns3:hr>126</ns3:hr>
          </ns3:TrackPointExtension>
        </extensions>
      </trkpt>
      <trkpt lat="25.09037629701197147369384765625" lon="121.86005073599517345428466796875">
        <ele>545.79998779296875</ele>
        <time>2025-01-20T07:15:14.000Z</time>
        <extensions>
          <ns3:TrackPointExtension>
            <ns3:atemp>21.0</ns3:atemp>
            <ns3:hr>128</ns3:hr>
          </ns3:TrackPointExtension>
        </extensions>
      </trkpt>
      <trkpt lat="25.0903911329805850982666015625" lon="121.86008074320852756500244140625">
        <ele>545.79998779296875</ele>
        <time>2025-01-20T07:15:15.000Z</time>
        <extensions>
          <ns3:TrackPointExtension>
            <ns3:atemp>21.0</ns3:atemp>
            <ns3:hr>129</ns3:hr>
          </ns3:TrackPointExtension>
        </extensions>
      </trkpt>
      <trkpt lat="25.0903861038386821746826171875" lon="121.8601093254983425140380859375">
        <ele>546.20001220703125</ele>
        <time>2025-01-20T07:15:17.000Z</time>
        <extensions>
          <ns3:TrackPointExtension>
            <ns3:atemp>21.0</ns3:atemp>
            <ns3:hr>133</ns3:hr>
          </ns3:TrackPointExtension>
        </extensions>
      </trkpt>
      <trkpt lat="25.09038115851581096649169921875" lon="121.86011016368865966796875">
        <ele>546.5999755859375</ele>
        <time>2025-01-20T07:15:19.000Z</time>
        <extensions>
          <ns3:TrackPointExtension>
            <ns3:atemp>21.0</ns3:atemp>
            <ns3:hr>136</ns3:hr>
          </ns3:TrackPointExtension>
        </extensions>
      </trkpt>
      <trkpt lat="25.09038115851581096649169921875" lon="121.86011016368865966796875">
        <ele>546.4000244140625</ele>
        <time>2025-01-20T07:15:23.000Z</time>
        <extensions>
          <ns3:TrackPointExtension>
            <ns3:atemp>21.0</ns3:atemp>
            <ns3:hr>135</ns3:hr>
          </ns3:TrackPointExtension>
        </extensions>
      </trkpt>
      <trkpt lat="25.09039230644702911376953125" lon="121.8600999377667903900146484375">
        <ele>546.20001220703125</ele>
        <time>2025-01-20T07:15:27.000Z</time>
        <extensions>
          <ns3:TrackPointExtension>
            <ns3:atemp>21.0</ns3:atemp>
            <ns3:hr>134</ns3:hr>
          </ns3:TrackPointExtension>
        </extensions>
      </trkpt>
      <trkpt lat="25.09042038582265377044677734375" lon="121.8601099960505962371826171875">
        <ele>546.20001220703125</ele>
        <time>2025-01-20T07:15:28.000Z</time>
        <extensions>
          <ns3:TrackPointExtension>
            <ns3:atemp>21.0</ns3:atemp>
            <ns3:hr>135</ns3:hr>
          </ns3:TrackPointExtension>
        </extensions>
      </trkpt>
      <trkpt lat="25.09043010883033275604248046875" lon="121.86011829413473606109619140625">
        <ele>546.4000244140625</ele>
        <time>2025-01-20T07:15:30.000Z</time>
        <extensions>
          <ns3:TrackPointExtension>
            <ns3:atemp>21.0</ns3:atemp>
            <ns3:hr>138</ns3:hr>
          </ns3:TrackPointExtension>
        </extensions>
      </trkpt>
      <trkpt lat="25.09043010883033275604248046875" lon="121.86011829413473606109619140625">
        <ele>546.79998779296875</ele>
        <time>2025-01-20T07:15:32.000Z</time>
        <extensions>
          <ns3:TrackPointExtension>
            <ns3:atemp>21.0</ns3:atemp>
            <ns3:hr>141</ns3:hr>
          </ns3:TrackPointExtension>
        </extensions>
      </trkpt>
      <trkpt lat="25.09043010883033275604248046875" lon="121.86011829413473606109619140625">
        <ele>547.20001220703125</ele>
        <time>2025-01-20T07:15:34.000Z</time>
        <extensions>
          <ns3:TrackPointExtension>
            <ns3:atemp>21.0</ns3:atemp>
            <ns3:hr>143</ns3:hr>
          </ns3:TrackPointExtension>
        </extensions>
      </trkpt>
      <trkpt lat="25.09043010883033275604248046875" lon="121.86011829413473606109619140625">
        <ele>547.4000244140625</ele>
        <time>2025-01-20T07:15:37.000Z</time>
        <extensions>
          <ns3:TrackPointExtension>
            <ns3:atemp>21.0</ns3:atemp>
            <ns3:hr>147</ns3:hr>
          </ns3:TrackPointExtension>
        </extensions>
      </trkpt>
      <trkpt lat="25.09042474441230297088623046875" lon="121.8601177074015140533447265625">
        <ele>547.4000244140625</ele>
        <time>2025-01-20T07:15:40.000Z</time>
        <extensions>
          <ns3:TrackPointExtension>
            <ns3:atemp>21.0</ns3:atemp>
            <ns3:hr>148</ns3:hr>
          </ns3:TrackPointExtension>
        </extensions>
      </trkpt>
      <trkpt lat="25.09040437638759613037109375" lon="121.86010505072772502899169921875">
        <ele>547.4000244140625</ele>
        <time>2025-01-20T07:15:46.000Z</time>
        <extensions>
          <ns3:TrackPointExtension>
            <ns3:atemp>21.0</ns3:atemp>
            <ns3:hr>145</ns3:hr>
          </ns3:TrackPointExtension>
        </extensions>
      </trkpt>
      <trkpt lat="25.09040437638759613037109375" lon="121.86010505072772502899169921875">
        <ele>547.4000244140625</ele>
        <time>2025-01-20T07:15:48.000Z</time>
        <extensions>
          <ns3:TrackPointExtension>
            <ns3:atemp>21.0</ns3:atemp>
            <ns3:hr>142</ns3:hr>
          </ns3:TrackPointExtension>
        </extensions>
      </trkpt>
      <trkpt lat="25.09041585959494113922119140625" lon="121.860099099576473236083984375">
        <ele>548</ele>
        <time>2025-01-20T07:15:52.000Z</time>
        <extensions>
          <ns3:TrackPointExtension>
            <ns3:atemp>21.0</ns3:atemp>
            <ns3:hr>147</ns3:hr>
          </ns3:TrackPointExtension>
        </extensions>
      </trkpt>
      <trkpt lat="25.09041267447173595428466796875" lon="121.86010010540485382080078125">
        <ele>548</ele>
        <time>2025-01-20T07:15:54.000Z</time>
        <extensions>
          <ns3:TrackPointExtension>
            <ns3:atemp>21.0</ns3:atemp>
            <ns3:hr>152</ns3:hr>
          </ns3:TrackPointExtension>
        </extensions>
      </trkpt>
      <trkpt lat="25.090409405529499053955078125" lon="121.8601123429834842681884765625">
        <ele>547.5999755859375</ele>
        <time>2025-01-20T07:15:56.000Z</time>
        <extensions>
          <ns3:TrackPointExtension>
            <ns3:atemp>21.0</ns3:atemp>
            <ns3:hr>155</ns3:hr>
          </ns3:TrackPointExtension>
        </extensions>
      </trkpt>
      <trkpt lat="25.09040437638759613037109375" lon="121.86010505072772502899169921875">
        <ele>546.5999755859375</ele>
        <time>2025-01-20T07:16:03.000Z</time>
        <extensions>
          <ns3:TrackPointExtension>
            <ns3:atemp>21.0</ns3:atemp>
            <ns3:hr>152</ns3:hr>
          </ns3:TrackPointExtension>
        </extensions>
      </trkpt>
      <trkpt lat="25.09040437638759613037109375" lon="121.86010505072772502899169921875">
        <ele>546.79998779296875</ele>
        <time>2025-01-20T07:16:05.000Z</time>
        <extensions>
          <ns3:TrackPointExtension>
            <ns3:atemp>21.0</ns3:atemp>
            <ns3:hr>150</ns3:hr>
          </ns3:TrackPointExtension>
        </extensions>
      </trkpt>
      <trkpt lat="25.09040437638759613037109375" lon="121.86010505072772502899169921875">
        <ele>546.5999755859375</ele>
        <time>2025-01-20T07:16:08.000Z</time>
        <extensions>
          <ns3:TrackPointExtension>
            <ns3:atemp>21.0</ns3:atemp>
            <ns3:hr>146</ns3:hr>
          </ns3:TrackPointExtension>
        </extensions>
      </trkpt>
      <trkpt lat="25.09040437638759613037109375" lon="121.86010505072772502899169921875">
        <ele>546.4000244140625</ele>
        <time>2025-01-20T07:16:09.000Z</time>
        <extensions>
          <ns3:TrackPointExtension>
            <ns3:atemp>21.0</ns3:atemp>
            <ns3:hr>143</ns3:hr>
          </ns3:TrackPointExtension>
        </extensions>
      </trkpt>
      <trkpt lat="25.09040437638759613037109375" lon="121.86010505072772502899169921875">
        <ele>546.4000244140625</ele>
        <time>2025-01-20T07:16:10.000Z</time>
        <extensions>
          <ns3:TrackPointExtension>
            <ns3:atemp>21.0</ns3:atemp>
            <ns3:hr>140</ns3:hr>
          </ns3:TrackPointExtension>
        </extensions>
      </trkpt>
      <trkpt lat="25.09040437638759613037109375" lon="121.86010505072772502899169921875">
        <ele>546.4000244140625</ele>
        <time>2025-01-20T07:16:11.000Z</time>
        <extensions>
          <ns3:TrackPointExtension>
            <ns3:atemp>21.0</ns3:atemp>
            <ns3:hr>137</ns3:hr>
          </ns3:TrackPointExtension>
        </extensions>
      </trkpt>
      <trkpt lat="25.09040437638759613037109375" lon="121.86010505072772502899169921875">
        <ele>546.4000244140625</ele>
        <time>2025-01-20T07:16:15.000Z</time>
        <extensions>
          <ns3:TrackPointExtension>
            <ns3:atemp>21.0</ns3:atemp>
            <ns3:hr>136</ns3:hr>
          </ns3:TrackPointExtension>
        </extensions>
      </trkpt>
      <trkpt lat="25.09040462784469127655029296875" lon="121.860112510621547698974609375">
        <ele>546.4000244140625</ele>
        <time>2025-01-20T07:16:16.000Z</time>
        <extensions>
          <ns3:TrackPointExtension>
            <ns3:atemp>21.0</ns3:atemp>
            <ns3:hr>133</ns3:hr>
          </ns3:TrackPointExtension>
        </extensions>
      </trkpt>
      <trkpt lat="25.09040814824402332305908203125" lon="121.86009868048131465911865234375">
        <ele>548</ele>
        <time>2025-01-20T07:16:18.000Z</time>
        <extensions>
          <ns3:TrackPointExtension>
            <ns3:atemp>21.0</ns3:atemp>
            <ns3:hr>130</ns3:hr>
          </ns3:TrackPointExtension>
        </extensions>
      </trkpt>
      <trkpt lat="25.09040437638759613037109375" lon="121.86010505072772502899169921875">
        <ele>548.4000244140625</ele>
        <time>2025-01-20T07:16:19.000Z</time>
        <extensions>
          <ns3:TrackPointExtension>
            <ns3:atemp>21.0</ns3:atemp>
            <ns3:hr>129</ns3:hr>
          </ns3:TrackPointExtension>
        </extensions>
      </trkpt>
      <trkpt lat="25.09040437638759613037109375" lon="121.86010505072772502899169921875">
        <ele>548.20001220703125</ele>
        <time>2025-01-20T07:16:25.000Z</time>
        <extensions>
          <ns3:TrackPointExtension>
            <ns3:atemp>21.0</ns3:atemp>
            <ns3:hr>126</ns3:hr>
          </ns3:TrackPointExtension>
        </extensions>
      </trkpt>
      <trkpt lat="25.09040437638759613037109375" lon="121.86010505072772502899169921875">
        <ele>548</ele>
        <time>2025-01-20T07:16:27.000Z</time>
        <extensions>
          <ns3:TrackPointExtension>
            <ns3:atemp>21.0</ns3:atemp>
            <ns3:hr>123</ns3:hr>
          </ns3:TrackPointExtension>
        </extensions>
      </trkpt>
      <trkpt lat="25.09040437638759613037109375" lon="121.86010505072772502899169921875">
        <ele>548</ele>
        <time>2025-01-20T07:16:31.000Z</time>
        <extensions>
          <ns3:TrackPointExtension>
            <ns3:atemp>21.0</ns3:atemp>
            <ns3:hr>120</ns3:hr>
          </ns3:TrackPointExtension>
        </extensions>
      </trkpt>
      <trkpt lat="25.09040437638759613037109375" lon="121.86010505072772502899169921875">
        <ele>548</ele>
        <time>2025-01-20T07:16:32.000Z</time>
        <extensions>
          <ns3:TrackPointExtension>
            <ns3:atemp>21.0</ns3:atemp>
            <ns3:hr>119</ns3:hr>
          </ns3:TrackPointExtension>
        </extensions>
      </trkpt>
      <trkpt lat="25.09040437638759613037109375" lon="121.86010505072772502899169921875">
        <ele>547.20001220703125</ele>
        <time>2025-01-20T07:16:37.000Z</time>
        <extensions>
          <ns3:TrackPointExtension>
            <ns3:atemp>21.0</ns3:atemp>
            <ns3:hr>124</ns3:hr>
          </ns3:TrackPointExtension>
        </extensions>
      </trkpt>
      <trkpt lat="25.09040437638759613037109375" lon="121.86010505072772502899169921875">
        <ele>547.20001220703125</ele>
        <time>2025-01-20T07:16:38.000Z</time>
        <extensions>
          <ns3:TrackPointExtension>
            <ns3:atemp>20.0</ns3:atemp>
            <ns3:hr>129</ns3:hr>
          </ns3:TrackPointExtension>
        </extensions>
      </trkpt>
      <trkpt lat="25.09040437638759613037109375" lon="121.86010505072772502899169921875">
        <ele>547.20001220703125</ele>
        <time>2025-01-20T07:16:39.000Z</time>
        <extensions>
          <ns3:TrackPointExtension>
            <ns3:atemp>20.0</ns3:atemp>
            <ns3:hr>134</ns3:hr>
          </ns3:TrackPointExtension>
        </extensions>
      </trkpt>
      <trkpt lat="25.09040437638759613037109375" lon="121.86010505072772502899169921875">
        <ele>546.20001220703125</ele>
        <time>2025-01-20T07:16:41.000Z</time>
        <extensions>
          <ns3:TrackPointExtension>
            <ns3:atemp>20.0</ns3:atemp>
            <ns3:hr>137</ns3:hr>
          </ns3:TrackPointExtension>
        </extensions>
      </trkpt>
      <trkpt lat="25.09040437638759613037109375" lon="121.86010505072772502899169921875">
        <ele>545.79998779296875</ele>
        <time>2025-01-20T07:16:48.000Z</time>
        <extensions>
          <ns3:TrackPointExtension>
            <ns3:atemp>20.0</ns3:atemp>
            <ns3:hr>138</ns3:hr>
          </ns3:TrackPointExtension>
        </extensions>
      </trkpt>
      <trkpt lat="25.09040437638759613037109375" lon="121.86010505072772502899169921875">
        <ele>546.79998779296875</ele>
        <time>2025-01-20T07:16:51.000Z</time>
        <extensions>
          <ns3:TrackPointExtension>
            <ns3:atemp>20.0</ns3:atemp>
            <ns3:hr>135</ns3:hr>
          </ns3:TrackPointExtension>
        </extensions>
      </trkpt>
      <trkpt lat="25.09040437638759613037109375" lon="121.86010505072772502899169921875">
        <ele>547.5999755859375</ele>
        <time>2025-01-20T07:16:52.000Z</time>
        <extensions>
          <ns3:TrackPointExtension>
            <ns3:atemp>20.0</ns3:atemp>
            <ns3:hr>134</ns3:hr>
          </ns3:TrackPointExtension>
        </extensions>
      </trkpt>
      <trkpt lat="25.09040437638759613037109375" lon="121.86010505072772502899169921875">
        <ele>547.79998779296875</ele>
        <time>2025-01-20T07:16:54.000Z</time>
        <extensions>
          <ns3:TrackPointExtension>
            <ns3:atemp>20.0</ns3:atemp>
            <ns3:hr>133</ns3:hr>
          </ns3:TrackPointExtension>
        </extensions>
      </trkpt>
      <trkpt lat="25.09040437638759613037109375" lon="121.86010505072772502899169921875">
        <ele>547.20001220703125</ele>
        <time>2025-01-20T07:17:01.000Z</time>
        <extensions>
          <ns3:TrackPointExtension>
            <ns3:atemp>20.0</ns3:atemp>
            <ns3:hr>136</ns3:hr>
          </ns3:TrackPointExtension>
        </extensions>
      </trkpt>
      <trkpt lat="25.09040437638759613037109375" lon="121.86010505072772502899169921875">
        <ele>547.20001220703125</ele>
        <time>2025-01-20T07:17:02.000Z</time>
        <extensions>
          <ns3:TrackPointExtension>
            <ns3:atemp>20.0</ns3:atemp>
            <ns3:hr>137</ns3:hr>
          </ns3:TrackPointExtension>
        </extensions>
      </trkpt>
      <trkpt lat="25.09040437638759613037109375" lon="121.86010505072772502899169921875">
        <ele>547</ele>
        <time>2025-01-20T07:17:11.000Z</time>
        <extensions>
          <ns3:TrackPointExtension>
            <ns3:atemp>20.0</ns3:atemp>
            <ns3:hr>134</ns3:hr>
          </ns3:TrackPointExtension>
        </extensions>
      </trkpt>
      <trkpt lat="25.09040437638759613037109375" lon="121.86010505072772502899169921875">
        <ele>546.79998779296875</ele>
        <time>2025-01-20T07:17:16.000Z</time>
        <extensions>
          <ns3:TrackPointExtension>
            <ns3:atemp>20.0</ns3:atemp>
            <ns3:hr>134</ns3:hr>
          </ns3:TrackPointExtension>
        </extensions>
      </trkpt>
      <trkpt lat="25.09040437638759613037109375" lon="121.86010505072772502899169921875">
        <ele>547.4000244140625</ele>
        <time>2025-01-20T07:17:20.000Z</time>
        <extensions>
          <ns3:TrackPointExtension>
            <ns3:atemp>20.0</ns3:atemp>
            <ns3:hr>133</ns3:hr>
          </ns3:TrackPointExtension>
        </extensions>
      </trkpt>
      <trkpt lat="25.09040437638759613037109375" lon="121.86010505072772502899169921875">
        <ele>547.79998779296875</ele>
        <time>2025-01-20T07:17:30.000Z</time>
        <extensions>
          <ns3:TrackPointExtension>
            <ns3:atemp>20.0</ns3:atemp>
            <ns3:hr>130</ns3:hr>
          </ns3:TrackPointExtension>
        </extensions>
      </trkpt>
      <trkpt lat="25.09040437638759613037109375" lon="121.86010505072772502899169921875">
        <ele>547.5999755859375</ele>
        <time>2025-01-20T07:17:32.000Z</time>
        <extensions>
          <ns3:TrackPointExtension>
            <ns3:atemp>20.0</ns3:atemp>
            <ns3:hr>127</ns3:hr>
          </ns3:TrackPointExtension>
        </extensions>
      </trkpt>
      <trkpt lat="25.09040437638759613037109375" lon="121.86010505072772502899169921875">
        <ele>548</ele>
        <time>2025-01-20T07:17:39.000Z</time>
        <extensions>
          <ns3:TrackPointExtension>
            <ns3:atemp>20.0</ns3:atemp>
            <ns3:hr>124</ns3:hr>
          </ns3:TrackPointExtension>
        </extensions>
      </trkpt>
      <trkpt lat="25.09040437638759613037109375" lon="121.86010505072772502899169921875">
        <ele>547.79998779296875</ele>
        <time>2025-01-20T07:17:41.000Z</time>
        <extensions>
          <ns3:TrackPointExtension>
            <ns3:atemp>20.0</ns3:atemp>
            <ns3:hr>124</ns3:hr>
          </ns3:TrackPointExtension>
        </extensions>
      </trkpt>
      <trkpt lat="25.09040437638759613037109375" lon="121.86010505072772502899169921875">
        <ele>548.4000244140625</ele>
        <time>2025-01-20T07:17:49.000Z</time>
        <extensions>
          <ns3:TrackPointExtension>
            <ns3:atemp>20.0</ns3:atemp>
            <ns3:hr>123</ns3:hr>
          </ns3:TrackPointExtension>
        </extensions>
      </trkpt>
      <trkpt lat="25.09040437638759613037109375" lon="121.86010505072772502899169921875">
        <ele>547.5999755859375</ele>
        <time>2025-01-20T07:17:54.000Z</time>
        <extensions>
          <ns3:TrackPointExtension>
            <ns3:atemp>20.0</ns3:atemp>
            <ns3:hr>122</ns3:hr>
          </ns3:TrackPointExtension>
        </extensions>
      </trkpt>
    </trkseg>
  </trk>
</gpx>
